{
  "type": "FeatureCollection",
  "features": [
    {
      "type": "Feature",
      "properties": {
        "norad_id": 28051,
        "name": "IRS-P6 (RESOURCESAT-1)",
        "group": "resource",
        "lat": 22.32732388892529,
        "lon": 22.716318509068042,
        "alt_km": 814.4844823823605,
        "timestamp": "2025-12-11T15:53:39.198559+00:00",
        "meta_object_name": "IRS-P6 (RESOURCESAT-1)",
        "meta_object_id": "2003-046A",
        "meta_epoch": "2025-12-11T07:42:57.278592",
        "meta_mean_motion": 14.36073626,
        "meta_eccentricity": 0.0064021,
        "meta_inclination": 98.2177,
        "meta_ra_of_asc_node": 25.7938,
        "meta_arg_of_pericenter": 184.9342,
        "meta_mean_anomaly": 237.303,
        "meta_ephemeris_type": 0,
        "meta_classification_type": "U",
        "meta_norad_cat_id": 28051,
        "meta_element_set_no": 999,
        "meta_rev_at_epoch": 15356,
        "meta_bstar": 9.3608614e-05,
        "meta_mean_motion_dot": 2.38e-06,
        "meta_mean_motion_ddot": 0,
        "tle_line1": "1 28051U 03046A   25345.32149628  .00000238  00000+0  93609-4 0  9996",
        "tle_line2": "2 28051  98.2177  25.7938 0064021 184.9342 237.3030 14.36073626153566"
      },
      "geometry": {
        "type": "Point",
        "coordinates": [
          22.716318509068042,
          22.32732388892529
        ]
      }
    },
    {
      "type": "Feature",
      "properties": {
        "norad_id": 28220,
        "name": "SHIYAN-1 (SY-1)",
        "group": "resource",
        "lat": -77.20733588160601,
        "lon": -170.52685498875735,
        "alt_km": 487.5536200865772,
        "timestamp": "2025-12-11T15:53:39.198570+00:00",
        "meta_object_name": "SHIYAN-1 (SY-1)",
        "meta_object_id": "2004-012A",
        "meta_epoch": "2025-12-11T03:45:31.275072",
        "meta_mean_motion": 15.28073699,
        "meta_eccentricity": 0.00056737,
        "meta_inclination": 97.8932,
        "meta_ra_of_asc_node": 46.601,
        "meta_arg_of_pericenter": 332.2791,
        "meta_mean_anomaly": 27.8144,
        "meta_ephemeris_type": 0,
        "meta_classification_type": "U",
        "meta_norad_cat_id": 28220,
        "meta_element_set_no": 999,
        "meta_rev_at_epoch": 18232,
        "meta_bstar": 0.00071890736,
        "meta_mean_motion_dot": 0.00019641,
        "meta_mean_motion_ddot": 0,
        "tle_line1": "1 28220U 04012A   25345.15661198  .00019641  00000+0  71891-3 0  9996",
        "tle_line2": "2 28220  97.8932  46.6010 0005673 332.2791  27.8144 15.28073699182321"
      },
      "geometry": {
        "type": "Point",
        "coordinates": [
          -170.52685498875735,
          -77.20733588160601
        ]
      }
    },
    {
      "type": "Feature",
      "properties": {
        "norad_id": 28376,
        "name": "AURA",
        "group": "resource",
        "lat": -13.399935316289504,
        "lon": 113.88638148082629,
        "alt_km": 694.8338499248293,
        "timestamp": "2025-12-11T15:53:39.198581+00:00",
        "meta_object_name": "AURA",
        "meta_object_id": "2004-026A",
        "meta_epoch": "2025-12-11T06:47:34.738944",
        "meta_mean_motion": 14.60942223,
        "meta_eccentricity": 0.00012099,
        "meta_inclination": 98.3183,
        "meta_ra_of_asc_node": 295.5029,
        "meta_arg_of_pericenter": 94.106,
        "meta_mean_anomaly": 266.0279,
        "meta_ephemeris_type": 0,
        "meta_classification_type": "U",
        "meta_norad_cat_id": 28376,
        "meta_element_set_no": 999,
        "meta_rev_at_epoch": 13877,
        "meta_bstar": 0.00039929501,
        "meta_mean_motion_dot": 1.908e-05,
        "meta_mean_motion_ddot": 0,
        "tle_line1": "1 28376U 04026A   25345.28304096  .00001908  00000+0  39930-3 0  9993",
        "tle_line2": "2 28376  98.3183 295.5029 0001209  94.1060 266.0279 14.60942223138775"
      },
      "geometry": {
        "type": "Point",
        "coordinates": [
          113.88638148082629,
          -13.399935316289504
        ]
      }
    },
    {
      "type": "Feature",
      "properties": {
        "norad_id": 28649,
        "name": "IRS-P5 (CARTOSAT-1)",
        "group": "resource",
        "lat": -66.52226079792565,
        "lon": 29.901897282420176,
        "alt_km": 604.2986188251725,
        "timestamp": "2025-12-11T15:53:39.198592+00:00",
        "meta_object_name": "IRS-P5 (CARTOSAT-1)",
        "meta_object_id": "2005-017A",
        "meta_epoch": "2025-12-11T01:41:44.812320",
        "meta_mean_motion": 14.9039469,
        "meta_eccentricity": 0.00013144,
        "meta_inclination": 97.5497,
        "meta_ra_of_asc_node": 11.5578,
        "meta_arg_of_pericenter": 46.3716,
        "meta_mean_anomaly": 313.7611,
        "meta_ephemeris_type": 0,
        "meta_classification_type": "U",
        "meta_norad_cat_id": 28649,
        "meta_element_set_no": 999,
        "meta_rev_at_epoch": 11579,
        "meta_bstar": 0.00024249705,
        "meta_mean_motion_dot": 2.309e-05,
        "meta_mean_motion_ddot": 0,
        "tle_line1": "1 28649U 05017A   25345.07065755  .00002309  00000+0  24250-3 0  9995",
        "tle_line2": "2 28649  97.5497  11.5578 0001314  46.3716 313.7611 14.90394690115795"
      },
      "geometry": {
        "type": "Point",
        "coordinates": [
          29.901897282420176,
          -66.52226079792565
        ]
      }
    },
    {
      "type": "Feature",
      "properties": {
        "norad_id": 28893,
        "name": "SINAH 1",
        "group": "resource",
        "lat": 27.523050800335284,
        "lon": 109.87519721690063,
        "alt_km": 683.3360322281851,
        "timestamp": "2025-12-11T15:53:39.198603+00:00",
        "meta_object_name": "SINAH 1",
        "meta_object_id": "2005-043D",
        "meta_epoch": "2025-12-11T07:33:55.492704",
        "meta_mean_motion": 14.63960476,
        "meta_eccentricity": 0.00152675,
        "meta_inclination": 98.2601,
        "meta_ra_of_asc_node": 113.8686,
        "meta_arg_of_pericenter": 141.2138,
        "meta_mean_anomaly": 219.0163,
        "meta_ephemeris_type": 0,
        "meta_classification_type": "U",
        "meta_norad_cat_id": 28893,
        "meta_element_set_no": 999,
        "meta_rev_at_epoch": 7303,
        "meta_bstar": 0.00017502342,
        "meta_mean_motion_dot": 8.69e-06,
        "meta_mean_motion_ddot": 0,
        "tle_line1": "1 28893U 05043D   25345.31522561  .00000869  00000+0  17502-3 0  9996",
        "tle_line2": "2 28893  98.2601 113.8686 0015267 141.2138 219.0163 14.63960476 73033"
      },
      "geometry": {
        "type": "Point",
        "coordinates": [
          109.87519721690063,
          27.523050800335284
        ]
      }
    },
    {
      "type": "Feature",
      "properties": {
        "norad_id": 29079,
        "name": "EROS B",
        "group": "resource",
        "lat": -5.697430646338871,
        "lon": 102.92197981062293,
        "alt_km": 367.8777797765124,
        "timestamp": "2025-12-11T15:53:39.198613+00:00",
        "meta_object_name": "EROS B",
        "meta_object_id": "2006-014A",
        "meta_epoch": "2025-12-11T06:43:40.796256",
        "meta_mean_motion": 15.67711725,
        "meta_eccentricity": 0.00019068,
        "meta_inclination": 97.3469,
        "meta_ra_of_asc_node": 101.7846,
        "meta_arg_of_pericenter": 294.8466,
        "meta_mean_anomaly": 65.2597,
        "meta_ephemeris_type": 0,
        "meta_classification_type": "U",
        "meta_norad_cat_id": 29079,
        "meta_element_set_no": 999,
        "meta_rev_at_epoch": 9057,
        "meta_bstar": 0.0033686758,
        "meta_mean_motion_dot": 0.00384865,
        "meta_mean_motion_ddot": 0,
        "tle_line1": "1 29079U 06014A   25345.28033329  .00384865  00000+0  33687-2 0  9999",
        "tle_line2": "2 29079  97.3469 101.7846 0001906 294.8466  65.2597 15.67711725 90576"
      },
      "geometry": {
        "type": "Point",
        "coordinates": [
          102.92197981062293,
          -5.697430646338871
        ]
      }
    },
    {
      "type": "Feature",
      "properties": {
        "norad_id": 29228,
        "name": "RESURS-DK 1",
        "group": "resource",
        "lat": 52.07100992804363,
        "lon": -103.3498628280003,
        "alt_km": 527.9507041015759,
        "timestamp": "2025-12-11T15:53:39.198625+00:00",
        "meta_object_name": "RESURS-DK 1",
        "meta_object_id": "2006-021A",
        "meta_epoch": "2025-12-10T18:42:49.206816",
        "meta_mean_motion": 15.1214377,
        "meta_eccentricity": 0.00074309,
        "meta_inclination": 69.9334,
        "meta_ra_of_asc_node": 106.9034,
        "meta_arg_of_pericenter": 261.2716,
        "meta_mean_anomaly": 98.7608,
        "meta_ephemeris_type": 0,
        "meta_classification_type": "U",
        "meta_norad_cat_id": 29228,
        "meta_element_set_no": 999,
        "meta_rev_at_epoch": 7408,
        "meta_bstar": 0.00025580505,
        "meta_mean_motion_dot": 4.317e-05,
        "meta_mean_motion_ddot": 0,
        "tle_line1": "1 29228U 06021A   25344.77973619  .00004317  00000+0  25581-3 0  9997",
        "tle_line2": "2 29228  69.9334 106.9034 0007430 261.2716  98.7608 15.12143770 74089"
      },
      "geometry": {
        "type": "Point",
        "coordinates": [
          -103.3498628280003,
          52.07100992804363
        ]
      }
    }
  ]
}